      2.10          N: GNSS NAV DATA                        RINEX VERSION / TYPE
fic2rin                                 01/25/2023 00:17:37 PGM / RUN BY / DATE
                                                            END OF HEADER
31 23  1 24 20  0  0.0 -.207271892577D-03 -.102318153949D-11  .000000000000D+00
     .620000000000D+02  .541875000000D+02  .479984278986D-08 -.259785136029D+01
     .254251062870D-05  .107750108000D-01  .981613993645D-05  .515364764404D+04
     .244800000000D+06 -.372529029846D-07  .138687448276D+01 -.150874257088D-06
     .954227088920D+00  .187625000000D+03  .495632903111D+00 -.805176395972D-08
     .656098757718D-09  .100000000000D+01  .224600000000D+04  .000000000000D+00
     .240000000000D+01  .000000000000D+00 -.135041773319D-07  .620000000000D+02
     .237600000000D+06  .400000000000D+01
16 23  1 24 20  0  0.0 -.522783957422D-03  .125055521494D-11  .000000000000D+00
     .560000000000D+02 -.192500000000D+02  .498127891883D-08  .165042285106D+01
    -.976026058197D-06  .133491606684D-01  .617653131485D-05  .515376698494D+04
     .244800000000D+06 -.314787030220D-06  .250048906530D+01  .540167093277D-07
     .966267396253D+00  .269093750000D+03  .756945141141D+00 -.835427656058D-08
    -.395373611755D-09  .100000000000D+01  .224600000000D+04  .000000000000D+00
     .240000000000D+01  .000000000000D+00 -.102445483208D-07  .560000000000D+02
     .237600000000D+06  .400000000000D+01
30 23  1 24 20  0  0.0 -.532388221473D-03  .102318153949D-11  .000000000000D+00
     .550000000000D+02  .374687500000D+02  .520450250271D-08 -.215034416832D+01
     .171549618244D-05  .606330472510D-02  .984594225883D-05  .515364856339D+04
     .244800000000D+06  .113621354103D-06  .137536183243D+01 -.912696123123D-07
     .935246070627D+00  .176406250000D+03 -.266150655249D+01 -.828927385296D-08
     .661813281465D-09  .100000000000D+01  .224600000000D+04  .000000000000D+00
     .240000000000D+01  .000000000000D+00  .372529029846D-08  .550000000000D+02
     .237600000000D+06  .400000000000D+01
15 23  1 24 20  0  0.0  .746501609683D-05  .329691829393D-11  .000000000000D+00
     .380000000000D+02 -.102843750000D+03  .507271129879D-08 -.156144230571D+00
    -.534765422344D-05  .147348105675D-01  .956095755100D-05  .515367472458D+04
     .244800000000D+06 -.139698386192D-06  .180748869807D+00  .169500708580D-06
     .932113354445D+00  .182468750000D+03  .117584239680D+01 -.863464538192D-08
    -.107861635727D-09  .100000000000D+01  .224600000000D+04  .000000000000D+00
     .240000000000D+01  .000000000000D+00 -.107102096081D-07  .380000000000D+02
     .237600000000D+06  .400000000000D+01
11 23  1 24 20  0  0.0 -.866018235683D-04 -.932232069317D-11  .000000000000D+00
     .111000000000D+03  .985312500000D+02  .449483008486D-08  .794968000008D-01
     .514648854733D-05  .778640853241D-03  .723078846931D-05  .515369536018D+04
     .244800000000D+06  .279396772385D-07 -.172571113857D+01 -.745058059692D-08
     .964478709724D+00  .243687500000D+03 -.270215323247D+01 -.821534220198D-08
     .302512600864D-09  .100000000000D+01  .224600000000D+04  .000000000000D+00
     .240000000000D+01  .000000000000D+00 -.884756445885D-08  .623000000000D+03
     .237600000000D+06  .400000000000D+01
25 23  1 24 20  0  0.0  .414181500673D-03  .329691829393D-11  .000000000000D+00
     .290000000000D+02 -.110000000000D+02  .517271546436D-08 -.287514065038D+01
    -.607222318649D-06  .111601335229D-01  .484287738800D-05  .515355050850D+04
     .244800000000D+06  .189989805222D-06  .240124893649D+01 -.219792127609D-06
     .954045063875D+00  .280187500000D+03  .101905018129D+01 -.834999066777D-08
    -.181078971237D-09  .100000000000D+01  .224600000000D+04  .000000000000D+00
     .240000000000D+01  .000000000000D+00  .558793544769D-08  .290000000000D+02
     .237600000000D+06  .400000000000D+01
29 23  1 24 20  0  0.0 -.582295935601D-03 -.216004991671D-11  .000000000000D+00
     .670000000000D+02  .183750000000D+02  .384194574675D-08  .813846008387D+00
     .793486833572D-06  .213534885552D-02  .116135925055D-04  .515359790802D+04
     .244800000000D+06 -.558793544769D-08 -.274884304855D+01  .149011611938D-07
     .978392248547D+00  .163531250000D+03  .242075969498D+01 -.770174938020D-08
    -.432875173846D-09  .100000000000D+01  .224600000000D+04  .000000000000D+00
     .240000000000D+01  .000000000000D+00 -.102445483208D-07  .670000000000D+02
     .237600000000D+06  .400000000000D+01
18 23  1 24 20  0  0.0 -.112348701805D-03 -.154614099301D-10  .000000000000D+00
     .880000000000D+02  .111312500000D+03  .417088801994D-08 -.129040938959D+01
     .567920506001D-05  .296320195775D-02  .692531466484D-05  .515369862175D+04
     .244800000000D+06 -.614672899246D-07 -.175874783719D+01 -.763684511185D-07
     .973015635470D+00  .254156250000D+03 -.310636431350D+01 -.802140555231D-08
     .292155026572D-09  .100000000000D+01  .224600000000D+04  .000000000000D+00
     .240000000000D+01  .000000000000D+00 -.838190317154D-08  .880000000000D+02
     .237600000000D+06  .400000000000D+01
24 23  1 24 20  0  0.0 -.442992895842D-04 -.164845914696D-10  .000000000000D+00
     .750000000000D+02  .355937500000D+02  .521843165434D-08 -.113152550113D+01
     .202655792236D-05  .136775769060D-01  .948086380959D-05  .515366505241D+04
     .244800000000D+06  .260770320892D-06  .127879357866D+01  .169500708580D-06
     .933733837579D+00  .182000000000D+03  .881335899475D+00 -.839034949173D-08
     .525736184737D-09  .100000000000D+01  .224600000000D+04  .000000000000D+00
     .240000000000D+01  .000000000000D+00  .232830643654D-08  .750000000000D+02
     .237600000000D+06  .400000000000D+01
27 23  1 24 20  0  0.0  .118984840810D-03 -.932232069317D-11  .000000000000D+00
     .108000000000D+03  .144375000000D+02  .423231915022D-08  .833392691751D+00
     .961124897003D-06  .111893091816D-01  .117905437946D-04  .515366604233D+04
     .244800000000D+06 -.167638063431D-07 -.282742131594D+01  .126659870148D-06
     .969580594101D+00  .156656250000D+03  .690011122350D+00 -.797997525514D-08
    -.622525930704D-09  .100000000000D+01  .224600000000D+04  .000000000000D+00
     .240000000000D+01  .000000000000D+00  .186264514923D-08  .108000000000D+03
     .237600000000D+06  .400000000000D+01
21 23  1 24 20  0  0.0  .153648201376D-03  .227373675443D-12  .000000000000D+00
     .980000000000D+02  .101156250000D+03  .459840582777D-08  .771330933327D+00
     .477023422718D-05  .248232627055D-01  .838004052639D-05  .515365875435D+04
     .244800000000D+06  .290572643280D-06 -.186182063143D+01 -.452622771263D-06
     .961224811260D+00  .215968750000D+03 -.830209648261D+00 -.846570977365D-08
     .248938940735D-09  .100000000000D+01  .224600000000D+04  .000000000000D+00
     .240000000000D+01  .000000000000D+00 -.102445483208D-07  .980000000000D+02
     .237600000000D+06  .400000000000D+01
20 23  1 24 20  0  0.0  .454999972135D-03 -.238742359215D-11  .000000000000D+00
     .100000000000D+03 -.562500000000D+00  .524914721948D-08 -.491523405306D+00
     .316649675369D-07  .454192224424D-02  .142492353916D-05  .515373017120D+04
     .244800000000D+06  .108033418655D-06 -.894649811584D+00  .484287738800D-07
     .946640324078D+00  .344125000000D+03 -.293812190110D+01 -.881036698715D-08
     .578595529398D-10  .100000000000D+01  .224600000000D+04  .000000000000D+00
     .340000000000D+01  .000000000000D+00 -.838190317154D-08  .100000000000D+03
     .237600000000D+06  .400000000000D+01
19 23  1 24 20  0  0.0  .268502626568D-03  .511590769747D-11  .000000000000D+00
     .570000000000D+02  .956250000000D+01  .393337812670D-08  .291369493472D+01
     .594183802605D-06  .904750567861D-02  .124182552099D-04  .515360723305D+04
     .244800000000D+06  .409781932831D-07 -.271802271617D+01  .104308128357D-06
     .975180053489D+00  .145750000000D+03  .223355598441D+01 -.761603152400D-08
    -.465733685392D-09  .100000000000D+01  .224600000000D+04  .000000000000D+00
     .240000000000D+01  .000000000000D+00 -.153668224812D-07  .570000000000D+02
     .237600000000D+06  .400000000000D+01
14 23  1 24 20  0  0.0 -.425498001277D-04  .807176547823D-11  .000000000000D+00
     .200000000000D+02 -.700000000000D+01  .530736393015D-08 -.275487661571D+01
    -.331550836563D-06  .258375972044D-02  .518560409546D-05  .515365362167D+04
     .244800000000D+06 -.540167093277D-07  .244539923212D+01 -.931322574615D-08
     .949819012460D+00  .274968750000D+03 -.308133031805D+01 -.845963809217D-08
    -.210723063176D-09  .100000000000D+01  .224600000000D+04  .000000000000D+00
     .240000000000D+01  .000000000000D+00 -.791624188423D-08  .788000000000D+03
     .237600000000D+06  .400000000000D+01
23 23  1 24 20  0  0.0  .353436917067D-05  .125055521494D-11  .000000000000D+00
     .142000000000D+03 -.444375000000D+02  .450197323954D-08 -.230152105909D+01
    -.225193798542D-05  .298379547894D-02  .224821269512D-05  .515364432716D+04
     .244800000000D+06 -.149011611938D-07 -.758678166562D+00 -.428408384323D-07
     .972116616719D+00  .343406250000D+03 -.311966794422D+01 -.835463371831D-08
    -.403588239642D-10  .100000000000D+01  .224600000000D+04  .000000000000D+00
     .240000000000D+01  .000000000000D+00 -.838190317154D-08  .398000000000D+03
     .237600000000D+06  .400000000000D+01
